NORAD_CAT_ID,OBJECT_NAME,OBJECT_TYPE,EPOCH,MEAN_MOTION,ECCENTRICITY,INCLINATION,RA_OF_ASC_NODE,ARG_OF_PERICENTER,MEAN_ANOMALY,BSTAR,MEAN_MOTION_DOT,MEAN_MOTION_DDOT,TLE_LINE0,TLE_LINE1,TLE_LINE2,SEMIMAJOR_AXIS,PERIOD,APOGEE,PERIGEE,DECAYED
50193.0,STARLINK-3261,PAYLOAD,2023-08-31 04:17:55,15.08859425,0.000272,53.2183,55.9472,85.5905,274.5398,0.00042112,6.424e-05,0.0,0 STARLINK-3261,1 50193U 21125AP  23243.17912002  .00006424  00000-0  42112-3 0  9994,2 50193  53.2183  55.9472 0002720  85.5905 274.5398 15.08859425 97132,6917.821,95.436,541.568,537.804,0.0
50193.0,STARLINK-3261,PAYLOAD,2023-08-31 12:14:51,15.08846679,0.000193,53.2177,54.4614,92.8424,267.2789,0.00010955,1.456e-05,0.0,0 STARLINK-3261,1 50193U 21125AP  23243.51032066  .00001456  00000-0  10955-3 0  9995,2 50193  53.2177  54.4614 0001930  92.8424 267.2789 15.08846679 97181,6917.86,95.437,541.06,538.39,0.0
50193.0,STARLINK-3261,PAYLOAD,2023-08-31 20:11:47,15.08837542,0.0001604,53.2185,52.9731,93.8906,266.2269,-9.2202e-06,-4.35e-06,0.0,0 STARLINK-3261,1 50193U 21125AP  23243.84152471 -.00000435  00000-0 -92202-5 0  9999,2 50193  53.2185  52.9731 0001604  93.8906 266.2269 15.08837542 97762,6917.888,95.438,540.863,538.643,0.0
50193.0,STARLINK-3261,PAYLOAD,2023-09-01 10:30:15,15.08845668,0.0001991,53.2162,50.2966,80.3643,279.7575,4.2349e-05,3.86e-06,0.0,0 STARLINK-3261,1 50193U 21125AP  23244.43768281  .00000386  00000-0  42349-4 0  9996,2 50193  53.2162  50.2966 0001991  80.3643 279.7575 15.08845668 97853,6917.863,95.437,541.105,538.351,0.0
50193.0,STARLINK-3261,PAYLOAD,2023-09-01 13:41:02,15.08840234,0.0002004,53.2158,49.7016,85.1249,274.9972,-0.00030642,-5.162e-05,0.0,0 STARLINK-3261,1 50193U 21125AP  23244.57016798 -.00005162  00000-0 -30642-3 0  9991,2 50193  53.2158  49.7016 0002004  85.1249 274.9972 15.08840234 97872,6917.88,95.438,541.131,538.358,0.0
50193.0,STARLINK-3261,PAYLOAD,2023-09-02 10:21:03,15.08832461,0.0001456,53.2176,45.835,81.0983,279.0174,0.00015937,2.249e-05,0.0,0 STARLINK-3261,1 50193U 21125AP  23245.43129295  .00002249  00000-0  15937-3 0  9995,2 50193  53.2176  45.8350 0001456  81.0983 279.0174 15.08832461 97479,6917.903,95.438,540.776,538.761,0.0
50193.0,STARLINK-3261,PAYLOAD,2023-09-02 19:53:22,15.08845484,0.0001408,53.2182,44.0511,82.3424,277.7728,0.00032377,4.869e-05,0.0,0 STARLINK-3261,1 50193U 21125AP  23245.82872942  .00004869  00000-0  32377-3 0  9999,2 50193  53.2182  44.0511 0001408  82.3424 277.7728 15.08845484 98062,6917.864,95.437,540.703,538.755,0.0
50193.0,STARLINK-3261,PAYLOAD,2023-09-03 10:11:50,15.08841498,0.0001359,53.2179,41.3747,84.1354,275.9793,0.00027393,4.075e-05,0.0,0 STARLINK-3261,1 50193U 21125AP  23246.42489344  .00004075  00000-0  27393-3 0  9997,2 50193  53.2179  41.3747 0001359  84.1354 275.9793 15.08841498 97620,6917.876,95.437,540.681,538.801,0.0
50193.0,STARLINK-3261,PAYLOAD,2023-09-03 13:22:37,15.08842257,0.0001338,53.2179,40.78,84.2666,275.8479,0.00026789,3.978e-05,0.0,0 STARLINK-3261,1 50193U 21125AP  23246.55737311  .00003978  00000-0  26789-3 0  9990,2 50193  53.2179  40.7800 0001338  84.2666 275.8479 15.08842257 98172,6917.873,95.437,540.664,538.813,0.0
50193.0,STARLINK-3261,PAYLOAD,2023-09-04 10:02:38,15.0883786,0.0001772,53.2175,36.9139,75.857,284.2619,3.6417e-05,2.91e-06,0.0,0 STARLINK-3261,1 50193U 21125AP  23247.41849622  .00000291  00000-0  36417-4 0  9990,2 50193  53.2175  36.9139 0001772  75.8570 284.2619 15.08837860 97771,6917.887,95.438,540.978,538.526,0.0
50193.0,STARLINK-3261,PAYLOAD,2023-09-05 09:53:25,15.0883718,0.0001208,53.2176,32.4531,92.3202,267.7928,7.3084e-05,8.75e-06,0.0,0 STARLINK-3261,1 50193U 21125AP  23248.41209814  .00000875  00000-0  73084-4 0  9993,2 50193  53.2176  32.4531 0001208  92.3202 267.7928 15.08837180 98459,6917.889,95.438,540.59,538.918,0.0
50193.0,STARLINK-3261,PAYLOAD,2023-09-05 16:14:57,15.08841595,0.000132,53.2174,31.2642,86.0316,274.0827,0.00011249,1.503e-05,0.0,0 STARLINK-3261,1 50193U 21125AP  23248.67705624  .00001503  00000-0  11249-3 0  9994,2 50193  53.2174  31.2642 0001320  86.0316 274.0827 15.08841595 97967,6917.876,95.437,540.654,538.827,0.0
50193.0,STARLINK-3261,PAYLOAD,2023-09-06 09:44:12,15.08840395,0.0001111,53.2182,27.9941,86.1417,273.9702,0.00020365,2.955e-05,0.0,0 STARLINK-3261,1 50193U 21125AP  23249.40569865  .00002955  00000-0  20365-3 0  9992,2 50193  53.2182  27.9941 0001111  86.1417 273.9702 15.08840395 98600,6917.879,95.438,540.513,538.976,0.0
50193.0,STARLINK-3261,PAYLOAD,2023-09-06 16:05:44,15.08845822,0.0001117,53.2187,26.8044,88.074,272.038,0.00023279,3.42e-05,0.0,0 STARLINK-3261,1 50193U 21125AP  23249.67065600  .00003420  00000-0  23279-3 0  9994,2 50193  53.2187  26.8044 0001117  88.0740 272.0380 15.08845822 98649,6917.863,95.437,540.5,538.955,0.0
50193.0,STARLINK-3261,PAYLOAD,2023-09-06 20:51:53,15.08852648,0.0001246,53.218,25.9114,88.3282,271.7853,0.00030413,4.557e-05,0.0,0 STARLINK-3261,1 50193U 21125AP  23249.86937210  .00004557  00000-0  30413-3 0  9990,2 50193  53.2180  25.9114 0001246  88.3282 271.7853 15.08852648 98147,6917.842,95.437,540.569,538.845,0.0
50193.0,STARLINK-3261,PAYLOAD,2023-09-07 09:34:59,15.08835531,0.000113,53.2181,23.5331,89.5766,270.5355,5.8545e-05,6.44e-06,0.0,0 STARLINK-3261,1 50193U 21125AP  23250.39930070  .00000644  00000-0  58545-4 0  9997,2 50193  53.2181  23.5331 0001130  89.5766 270.5355 15.08835531 98220,6917.894,95.438,540.541,538.977,0.0
50193.0,STARLINK-3261,PAYLOAD,2023-09-07 20:42:40,15.08847777,0.000158,53.2166,21.4491,96.7032,263.414,0.00012538,1.708e-05,0.0,0 STARLINK-3261,1 50193U 21125AP  23250.86297362  .00001708  00000-0  12538-3 0  9992,2 50193  53.2166  21.4491 0001580  96.7032 263.4140 15.08847777 98826,6917.857,95.437,540.815,538.629,0.0
50193.0,STARLINK-3261,PAYLOAD,2023-09-08 14:11:55,15.08836833,0.0001356,53.2179,18.1795,85.5784,274.5363,-4.0362e-05,-9.3e-06,0.0,0 STARLINK-3261,1 50193U 21125AP  23251.59161944 -.00000930  00000-0 -40362-4 0  9994,2 50193  53.2179  18.1795 0001356  85.5784 274.5363 15.08836833 98934,6917.89,95.438,540.693,538.817,0.0
50193.0,STARLINK-3261,PAYLOAD,2023-09-08 17:22:42,15.08840251,0.0001271,53.2174,17.5861,82.5909,277.5227,3.2102e-05,2.23e-06,0.0,0 STARLINK-3261,1 50193U 21125AP  23251.72409829  .00000223  00000-0  32102-4 0  9992,2 50193  53.2174  17.5861 0001271  82.5909 277.5227 15.08840251 98423,6917.88,95.438,540.624,538.865,0.0
50193.0,STARLINK-3261,PAYLOAD,2023-09-09 09:16:33,15.0883322,0.0001131,53.2173,14.6129,79.5913,280.5207,6.6284e-05,7.67e-06,0.0,0 STARLINK-3261,1 50193U 21125AP  23252.38650374  .00000767  00000-0  66284-4 0  9999,2 50193  53.2173  14.6129 0001131  79.5913 280.5207 15.08833220 98524,6917.901,95.438,540.549,538.984,0.0
50193.0,STARLINK-3261,PAYLOAD,2023-09-09 14:02:43,15.0884136,9.96e-05,53.2173,13.7211,62.8149,297.2945,0.00011385,1.525e-05,0.0,0 STARLINK-3261,1 50193U 21125AP  23252.58522148  .00001525  00000-0  11385-3 0  9992,2 50193  53.2173  13.7211 0000996  62.8149 297.2945 15.08841360 99080,6917.876,95.437,540.43,539.052,0.0
50193.0,STARLINK-3261,PAYLOAD,2023-09-10 13:53:30,15.08849218,0.0001362,53.2179,9.2604,85.4823,274.6325,0.0003662,5.546e-05,0.0,0 STARLINK-3261,1 50193U 21125AP  23253.57882090  .00005546  00000-0  36620-3 0  9993,2 50193  53.2179   9.2604 0001362  85.4823 274.6325 15.08849218 99238,6917.852,95.437,540.659,538.775,0.0
50193.0,STARLINK-3261,PAYLOAD,2023-09-10 15:28:53,15.08852398,0.0001275,53.2175,8.9629,83.2562,276.8575,0.00041589,6.339e-05,0.0,0 STARLINK-3261,1 50193U 21125AP  23253.64505955  .00006339  00000-0  41589-3 0  9994,2 50193  53.2175   8.9629 0001275  83.2562 276.8575 15.08852398 98712,6917.842,95.437,540.59,538.825,0.0
50193.0,STARLINK-3261,PAYLOAD,2023-09-11 07:22:44,15.08844217,0.0001199,53.218,5.9891,103.7986,256.314,0.00013672,1.889e-05,0.0,0 STARLINK-3261,1 50193U 21125AP  23254.30746104  .00001889  00000-0  13672-3 0  9998,2 50193  53.2180   5.9891 0001199 103.7986 256.3140 15.08844217 98812,6917.867,95.437,540.562,538.903,0.0
50193.0,STARLINK-3261,PAYLOAD,2023-09-11 13:44:17,15.08845589,0.000119,53.218,4.7995,91.7991,268.3137,0.00018414,2.644e-05,0.0,0 STARLINK-3261,1 50193U 21125AP  23254.57242094  .00002644  00000-0  18414-3 0  9995,2 50193  53.2180   4.7995 0001190  91.7991 268.3137 15.08845589 99382,6917.863,95.437,540.552,538.905,0.0
50193.0,STARLINK-3261,PAYLOAD,2023-09-12 07:13:31,15.08842048,0.0001289,53.2172,1.5288,91.4921,268.6219,0.00010996,1.463e-05,0.0,0 STARLINK-3261,1 50193U 21125AP  23255.30106285  .00001463  00000-0  10996-3 0  9993,2 50193  53.2172   1.5288 0001289  91.4921 268.6219 15.08842048 98966,6917.874,95.437,540.631,538.847,0.0
50193.0,STARLINK-3261,PAYLOAD,2023-09-12 13:35:04,15.08848513,0.0001275,53.2175,0.3393,96.3511,263.7626,0.00013699,1.893e-05,0.0,0 STARLINK-3261,1 50193U 21125AP  23255.56602004  .00001893  00000-0  13699-3 0  9991,2 50193  53.2175   0.3393 0001275  96.3511 263.7626 15.08848513 99532,6917.854,95.437,540.601,538.837,0.0
50193.0,STARLINK-3261,PAYLOAD,2023-09-13 10:15:04,15.08856302,0.0001391,53.2165,356.4732,91.8651,268.2501,0.00036875,5.588e-05,0.0,0 STARLINK-3261,1 50193U 21125AP  23256.42713583  .00005588  00000-0  36875-3 0  9998,2 50193  53.2165 356.4732 0001391  91.8651 268.2501 15.08856302 99130,6917.831,95.437,540.658,538.733,0.0
50193.0,STARLINK-3261,PAYLOAD,2023-09-13 13:25:50,15.08862758,0.0001436,53.2185,355.88,93.6945,266.4211,0.0004819,7.395e-05,0.0,0 STARLINK-3261,1 50193U 21125AP  23256.55961304  .00007395  00000-0  48190-3 0  9999,2 50193  53.2185 355.8800 0001436  93.6945 266.4211 15.08862758 99687,6917.811,95.436,540.669,538.682,0.0
50193.0,STARLINK-3261,PAYLOAD,2023-09-14 10:05:52,15.08815369,0.0001413,53.2177,352.0149,59.8872,300.226,-0.00053838,-8.84e-05,0.0,0 STARLINK-3261,1 50193U 21125AP  23257.42074939 -.00008840  00000-0 -53838-3 0  9998,2 50193  53.2177 352.0149 0001413  59.8872 300.2260 15.08815369 99284,6917.956,95.439,540.798,538.843,0.0
